"nid","Street","Postalcode","City","Latitude","Longitude","type","Betaling","Bemanding","Kanylebeholder","Puslebord","Vandhane","Body","Term","Billeder"
"183","Amager Strandvej 11","2300","København S","55.666373","12.632197","Handicap","Ved ikke","Ved ikke","Ved ikke","Ved ikke","Ved ikke","Placering: Park, Amager Strand, Søstjernen
Åbningstider:
Åbent fra 1. april til 30. september
Ca. 9.00 til 21:00
Ændrede åbningstider Jul, Nytår, Corona m.m.: https://www.kk.dk/toiletter/","København","sites/default/files/images/3/2014/04/amager-strandvej11.jpg"
"359","Absalonsgade 12","1658","København V","55.670445","12.554053","Handicap","Ved ikke","Ved ikke","Ved ikke","Ved ikke","Ved ikke","Placering: Bemandet legeplads Skydebanehaven
Åbningstider:
mandag: Ca. 9.00 - 21.00 (19.00 om vinteren)
tirsdag: Ca. 9.00 - 21.00 (19.00 om vinteren)
onsdag: Ca. 9.00 - 21.00 (19.00 om vinteren)
torsdag: Ca. 9.00 - 21.00 (19.00 om vinteren)
fredag: Ca. 9.00 - 21.00 (19.00 om vinteren)
loerdag: Ca. 9.00 - 21.00 (19.00 om vinteren)
soendag: Ca. 9.00 - 21.00 (19.00 om vinteren)
doegnaabent: Nej
bemaerkning: Sommersæson (maj til september) mandag-fredag kl. 9-18 og om lørdagen 10-17. I vintersæsonen (oktober-april) mandag til fredag kl. 9-17.
Ændrede åbningstider Jul, Nytår, Corona m.m.: https://www.kk.dk/toiletter/","København","sites/default/files/images/3/2016/05/absalonsgade12.jpg"
"339","Amager Strand Promenaden 255","2300","København S","55.654530","12.649340","Handicap","Ved ikke","Ved ikke","Ved ikke","Ved ikke","Ved ikke","Placering: Amager Strandpark, Strandpromenaden nord
Åbningstider:
helaarsaabent: Ja
doegnaabent: Nej
Højsæson: 1. maj til 30. sep. Kl 8.00 til 22.00 alle ugens dage. Fra 1. juni til 31 august kl. 8.00 til 24.00 fredag, lørdag og søndag. Lavsæson: 1. okt til 30. april. Kl. 8.00 til 18.00 alle dage. Her er kun handicaptoilettet åbent. Handicaptoilet er helårsåbent.
Ændrede åbningstider Jul, Nytår, Corona m.m.: https://www.kk.dk/toiletter/","København","sites/default/files/images/3/2016/05/amager-strand-promenaden255.jpg"
"182","Amager Strandvej 244","2300","København S","55.648955","12.638736","Handicap","Ved ikke","Ved ikke","Ved ikke","Ved ikke","Ved ikke","Placering: Park, Amager Strandvej, Kastrup Fort
Åbningstider:
Åbent fra 1. april til 30. september
9.00 til 21:00 (19.00 om vinteren)
Ændrede åbningstider Jul, Nytår, Corona m.m.: https://www.kk.dk/toiletter/","København","sites/default/files/images/3/2014/04/amager-strandvej244.jpg"
"62","Amagerbrogade 185","2300","København S","55.651841","12.612123","Handicap","Nej","Nej","Ja","Ja","Ja","Placering: Gade, Sundbyøster Plads
Åbningstider:
Helårsåbent: ja
Døgnåbent: Ja
Ændrede åbningstider Jul, Nytår, Corona m.m.: https://www.kk.dk/toiletter/","København","sites/default/files/images/3/2011/03/amagerbrogade185.jpg"
"198","Baldersgade 60","2200","København N","55.701310","12.548328","Handicap","Nej","Ved ikke","Ved ikke","Ved ikke","Ved ikke","Placering: Gade, Balders Plads
Åbningstider:
Åbent fra 1. april til 30. september
Ca. 9.00 til 21:00
Ændrede åbningstider Jul, Nytår, Corona m.m.: https://www.kk.dk/toiletter/","København","sites/default/files/images/3/2014/04/baldersgade60.jpg"
"209","Bispebjerg Bakke 12","2400","København NV","55.709717","12.542855","Handicap","Nej","Nej","Ved ikke","Ved ikke","Ved ikke","Placering: Park, Lersøparken
Åbningstider:
Åbent fra 1. april til 30. september
Ca. 9.00 til 21:00
Ændrede åbningstider Jul, Nytår, Corona m.m.: https://www.kk.dk/toiletter/","København","sites/default/files/images/3/2014/04/bispebjerg-bakke12.jpg"
"384","Blågårds Plads 11","2200","København N","55.686436","12.556422","Handicap","Nej","Nej","Ved ikke","Ved ikke","Ja","Placering: Gade, Blågårds Plads
Åbningstider:
Helårsåbent: ja
Døgnåbent: Ja
Ændrede åbningstider Jul, Nytår, Corona m.m.: https://www.kk.dk/toiletter/","København","sites/default/files/images/3/2016/07/blaagaards-plads11.jpg"
"298","Borgergade 1F","1300","København K","55.682099","12.583712","Handicap","Nej","Nej","Ja","Ja","Ja","Placering: Gade, Borgergade
Åbningstider:
Helårsåbent: ja
Døgnåbent: Ja
Ændrede åbningstider Jul, Nytår, Corona m.m.: https://www.kk.dk/toiletter/","København","sites/default/files/images/3/2016/02/borgergade1f.jpgsites/default/files/images/1/2016/02/streetviewborgergade1f.jpgsites/default/files/images/1/2016/02/borgergade1ny.jpgsites/default/files/images/1/2016/02/borgergade2ny.jpgsites/default/files/images/1/2016/02/borgergade3.jpg"
"345","Brønshøj Kirkevej 8","2700","Brønshøj","55.705752","12.498597","Handicap","Ved ikke","Ved ikke","Ved ikke","Ved ikke","Ved ikke","Placering: Brønshøj Kirkegård https://www.kk.dk/artikel/br%C3%B8nsh%C3%B8j-kirkeg%C3%A5rd-en-landsbyki...
Åbningstider:
mandag: 7.00 - 22.00 / 7.00 - 19.00
tirsdag: 7.00 - 22.00 / 7.00 - 19.00
onsdag: 7.00 - 22.00 / 7.00 - 19.00
torsdag: 7.00 - 22.00 / 7.00 - 19.00
fredag: 7.00 - 22.00 / 7.00 - 19.00
loerdag: 7.00 - 22.00 / 7.00 - 19.00
soendag: 7.00 - 22.00 / 7.00 - 19.00
doegnaabent: Nej
bemaerkning: Vinterhalvåret (oktober-marts) 07:00-19:00 Sommerhalvåret (april-september) 07:00-22:00
Ændrede åbningstider Jul, Nytår, Corona m.m.: https://www.kk.dk/toiletter/","København","sites/default/files/images/3/2016/05/broenshoej-kirkevej8.jpg"
"174","Christianshavns Voldgade 36","1424","København K","55.670008","12.592640","Handicap","Ved ikke","Ved ikke","Ved ikke","Ved ikke","Ved ikke","Placering: Bemandet legeplads Christianshavns Vold, Elefantens bastion
Åbningstider:
mandag: Ca. 9.00 - 21.00 (19.00 om vinteren)
tirsdag: Ca. 9.00 - 21.00 (19.00 om vinteren)
onsdag: Ca. 9.00 - 21.00 (19.00 om vinteren)
torsdag: Ca. 9.00 - 21.00 (19.00 om vinteren)
fredag: Ca. 9.00 - 21.00 (19.00 om vinteren)
loerdag: Ca. 9.00 - 21.00 (19.00 om vinteren)
soendag: Ca. 9.00 - 21.00 (19.00 om vinteren)
doegnaabent: Nej
Ændrede åbningstider Jul, Nytår, Corona m.m.: https://www.kk.dk/toiletter/","København","sites/default/files/images/3/2014/04/christianshavns-voldgade362.jpg"
"677","Christianshavns Voldgade 36","1424","København K","55.669983","12.592711","Handicap","Nej","Ved ikke","Ved ikke","Ved ikke","Ved ikke","Placering: Park, Christianshavns Vold, Elefantens bastion
Åbningstider:
mandag: Ca. 9.00 - 21.00 (19.00 om vinteren)
tirsdag: Ca. 9.00 - 21.00 (19.00 om vinteren)
onsdag: Ca. 9.00 - 21.00 (19.00 om vinteren)
torsdag: Ca. 9.00 - 21.00 (19.00 om vinteren)
fredag: Ca. 9.00 - 21.00 (19.00 om vinteren)
loerdag: Ca. 9.00 - 21.00 (19.00 om vinteren)
soendag: Ca. 9.00 - 21.00 (19.00 om vinteren)
doegnaabent: Nej
Ændrede åbningstider Jul, Nytår, Corona m.m.: https://www.kk.dk/toiletter/","København","sites/default/files/images/1/2019/08/christianshavns-voldgade36.jpg"
"168","Damhusdæmningen 2a","2720","Vanløse","55.681570","12.473101","Handicap","Nej","Nej","Ved ikke","Ved ikke","Ved ikke","Placering: Park, Damhusdæmningen, v. kiosk
Åbningstider:
Åbent fra 1. april til 30. september
9.00 til 21:00 (19.00 om vinteren)
Ændrede åbningstider Jul, Nytår, Corona m.m.: https://www.kk.dk/toiletter/","København","sites/default/files/images/3/2014/04/damhusdaemningen2a.jpg"
"191","Edel Sauntes Allé 18","2100","København Ø","55.700706","12.565388","Handicap","Nej","Ved ikke","Ved ikke","Ved ikke","Ved ikke","Placering: Park, Fælledparken, Det røde toilet
Åbningstider:
Åbent fra 1. april til 30. september
9.00 til 21:00 (19.00 om vinteren)
Handicaptoilettet og pissoir er helårsåbent
Ændrede åbningstider Jul, Nytår, Corona m.m.: https://www.kk.dk/toiletter/","København","sites/default/files/images/3/2014/04/edel-sauntes-alle18.jpg"
"193","Edel Sauntes Allé 25","2100","København Ø","55.704773","12.565444","Handicap","Nej","Nej","Ved ikke","Ved ikke","Ved ikke","Placering: Park, Fælledparken, dansepladsen
Åbningstider:
Åbent fra 1. april til 30. september
Ca. 9.00 til 21:00
Ændrede åbningstider Jul, Nytår, Corona m.m.: https://www.kk.dk/toiletter/","København","sites/default/files/images/3/2014/04/edel-sauntes-alle1.jpg"
"179","Ejderstedgade 3","1761","København V","55.667806","12.541118","Handicap","Ved ikke","Nej","Ved ikke","Ved ikke","Ved ikke","Placering: Park, Enghaveparken
Åbningstider:
Åbent fra 1. april til 30. september
Ca. 9.00 til 21:00
Ændrede åbningstider Jul, Nytår, Corona m.m.: https://www.kk.dk/toiletter/","København","sites/default/files/images/3/2014/04/ejderstedgade3_0.jpg"
"50","Elna Munchs Plads 2","2720","Vanløse","55.691461","12.480697","Handicap","Nej","Nej","Ja","Ja","Ja","Placering: Gade, Elna Munchs Plads
Åbningstider:
Helårsåbent: ja
Døgnåbent: Ja
Ændrede åbningstider Jul, Nytår, Corona m.m.: https://www.kk.dk/toiletter/","København","sites/default/files/images/3/2011/03/elna-munchs-plads2.jpg"
"45","Emdrupvej 185","2400","København NV","55.723012","12.529522","Handicap","Nej","Nej","Ja","Ja","Ja","Placering: Gade, Emdrup Torv
Åbningstider:
Helårsåbent: ja
Døgnåbent: Ja
Ændrede åbningstider Jul, Nytår, Corona m.m.: https://www.kk.dk/toiletter/","København","sites/default/files/images/3/2011/03/emdrupvej185.jpg"
"643","Engdals alle 20","2500","Valby","55.658138","12.478322","Handicap","Ved ikke","Ved ikke","Ved ikke","Ved ikke","Ved ikke","Placering: Park, Vigerslevparken Syd
Åbningstider:
Åbent fra 1. april til 30. september
Ca. 9.00 til 21:00
Ændrede åbningstider Jul, Nytår, Corona m.m.: https://www.kk.dk/toiletter/","København","sites/default/files/images/1/2019/08/engdals-alle20.jpg"
"180","Engdraget 24","2500","Valby","55.669723","12.480273","Handicap","Ved ikke","Ved ikke","Ved ikke","Ved ikke","Ved ikke","Placering: Park, Vigerslevparken Nord
Åbningstider:
Åbent fra 1. april til 30. september
Ca. 9.00 til 21:00
Ændrede åbningstider Jul, Nytår, Corona m.m.: https://www.kk.dk/toiletter/","København","sites/default/files/images/3/2014/04/engdraget24.jpg"
"68","Enghave Plads 13b","1670","København V","55.667137","12.545621","Handicap","Nej","Nej","Ja","Ja","Ja","Placering: Gade, Enghave plads
Åbningstider:
Ca. 9.00 til 22:00
Ændrede åbningstider Jul, Nytår, Corona m.m.: https://www.kk.dk/toiletter/","København","sites/default/files/images/3/2011/04/enghave-plads13b.jpg"
"186","Englandsvej 59B","2300","København S","55.650650","12.602138","Handicap","Ved ikke","Ved ikke","Ved ikke","Ved ikke","Ved ikke","Placering: Park, Sundbyvesterparken
Åbningstider:
Åbent fra 1. april til 30. september
Ca. 9.00 til 21:00
Ændrede åbningstider Jul, Nytår, Corona m.m.: https://www.kk.dk/toiletter/","København","sites/default/files/images/3/2014/04/englandsvej59b.jpg"
"206","Engsvinget 46","2400","København NV","55.716732","12.514343","Handicap","Nej","Nej","Ved ikke","Ved ikke","Ved ikke","Placering: Park, Engsvinget
Åbningstider:
Åbent fra 1. april til 30. september
Ca. 9.00 til 21:00
Ændrede åbningstider Jul, Nytår, Corona m.m.: https://www.kk.dk/toiletter/","København","sites/default/files/images/3/2014/04/engsvinget46.jpg"
"688","Formosavej 2","2300","København S","55.649520","12.627403","Handicap","Ved ikke","Ved ikke","Ved ikke","Ved ikke","Ved ikke","Placering: Formosavej, trafiklegeplads
Åbningstider:
Mandag: Ca. 9.00 - 21.00
Tirsdag: Ca. 9.00 - 21.00
Onsdag: Ca. 9.00 - 21.00
Torsdag: Ca. 9.00 - 21.00
Fredag: Ca. 9.00 - 21.00
Lørdag: Ca. 9.00 - 21.00
Søndag: Ca. 9.00 - 21.00
Ændrede åbningstider Jul, Nytår, Corona m.m.: https://www.kk.dk/toiletter/","København","sites/default/files/images/1/2020/05/formosavej2.jpg"
"636","Frederik V's Vej 4","2100","København Ø","55.697267","12.569975","Handicap","Ved ikke","Ved ikke","Ved ikke","Ved ikke","Ved ikke","Placering: Bemandet legeplads Tårnlegepladsen, Fælledparken
Åbningstider:
mandag: Ca. 9.00 - 21.00 (19.00 om vinteren)
tirsdag: Ca. 9.00 - 21.00 (19.00 om vinteren)
onsdag: Ca. 9.00 - 21.00 (19.00 om vinteren)
torsdag: Ca. 9.00 - 21.00 (19.00 om vinteren)
fredag: Ca. 9.00 - 21.00 (19.00 om vinteren)
loerdag: Ca. 9.00 - 21.00 (19.00 om vinteren)
soendag: Ca. 9.00 - 21.00 (19.00 om vinteren)
doegnaabent: Nej
bemaerkning: Toilettet er forbeholdt legepladsens gæster
Ændrede åbningstider Jul, Nytår, Corona m.m.: https://www.kk.dk/toiletter/","København","sites/default/files/images/1/2019/07/frederik-vs-vej4.jpg"
"347","Frederiksborgvej 123","2400","København NV","55.714253","12.531011","Handicap","Ved ikke","Ved ikke","Ved ikke","Ved ikke","Ved ikke","Placering: Bispebjerg Kirkegård https://www.kk.dk/artikel/bispebjerg-kirkeg%C3%A5rd-i-nordvest
Åbningstider:
mandag: 7.00 - 22.00 / 7.00 - 19.00
tirsdag: 7.00 - 22.00 / 7.00 - 19.00
onsdag: 7.00 - 22.00 / 7.00 - 19.00
torsdag: 7.00 - 22.00 / 7.00 - 19.00
fredag: 7.00 - 22.00 / 7.00 - 19.00
loerdag: 7.00 - 22.00 / 7.00 - 19.00
soendag: 7.00 - 22.00 / 7.00 - 19.00
doegnaabent: Nej
bemaerkning: Vinterhalvåret (oktober-marts) 07:00-19:00 Sommerhalvåret (april-september) 07:00-22:00
Ændrede åbningstider Jul, Nytår, Corona m.m.: https://www.kk.dk/toiletter/","København","sites/default/files/images/3/2016/05/frederiksborgvej123.jpg"
"684","Grøndals Parkvej 125","2720","Vanløse","55.681302","12.491398","Handicap","Ved ikke","Ved ikke","Ved ikke","Ved ikke","Ved ikke","Placering: Grøndalsparken, Arnestedet legeplads
Åbningstider:
Åbent fra 1. april til 30. september
Ca. 9.00 til 21:00
Ændrede åbningstider Jul, Nytår, Corona m.m.: https://www.kk.dk/toiletter/","København","sites/default/files/images/1/2019/12/groendals-parkvej125.jpg"
"343","Gunløgsgade 26","2300","København S","55.664694","12.579486","Handicap","Ved ikke","Ved ikke","Ved ikke","Ved ikke","Ved ikke","Placering: Gade, Gunløgsgade, legeplads
Åbningstider:
mandag: Ca. 9.00 - 21.00 (19.00 om vinteren)
tirsdag: Ca. 9.00 - 21.00 (19.00 om vinteren)
onsdag: Ca. 9.00 - 21.00 (19.00 om vinteren)
torsdag: Ca. 9.00 - 21.00 (19.00 om vinteren)
fredag: Ca. 9.00 - 21.00 (19.00 om vinteren)
loerdag: Ca. 9.00 - 21.00 (19.00 om vinteren)
soendag: Ca. 9.00 - 21.00 (19.00 om vinteren)
doegnaabent: Nej
Ændrede åbningstider Jul, Nytår, Corona m.m.: https://www.kk.dk/toiletter/","København","sites/default/files/images/3/2016/05/gunloegsgade26.jpg"
"344","Gunnar Nu Hansens Plads 10","2100","København Ø","55.704867","12.570897","Handicap","Ved ikke","Ved ikke","Ved ikke","Ved ikke","Ved ikke","Placering: Bemandet legeplads Fælledparken, Trafiklegepladsen
Åbningstider:
mandag: Ca. 9.00 - 21.00 (19.00 om vinteren)
tirsdag: Ca. 9.00 - 21.00 (19.00 om vinteren)
onsdag: Ca. 9.00 - 21.00 (19.00 om vinteren)
torsdag: Ca. 9.00 - 21.00 (19.00 om vinteren)
fredag: Ca. 9.00 - 21.00 (19.00 om vinteren)
loerdag: Ca. 9.00 - 21.00 (19.00 om vinteren)
soendag: Ca. 9.00 - 21.00 (19.00 om vinteren)
doegnaabent: Nej
bemaerkning: sommersæsonen (marts- oktober) hverdage kl. 9-17 og hver 3. lørdag kl. 10-17. I vintersæsonen (november-februar) hverdage 9-16 og en gang om måneden åbent lørdag 10-16.
Ændrede åbningstider Jul, Nytår, Corona m.m.: https://www.kk.dk/toiletter/","København","sites/default/files/images/3/2016/05/gunnar-nu-hansens-plads10.jpg"
"67","Halmtorvet 12A","1700","København V","55.670548","12.561251","Handicap","Nej","Nej","Ja","Ja","Ja","Placering: Gade, Halmtorvet
Åbningstider: Ca. 9.00 til 22:00
Ændrede åbningstider Jul, Nytår, Corona m.m.: https://www.kk.dk/toiletter/","København","sites/default/files/images/3/2011/04/halmtorvet12a.jpgsites/default/files/images/3/2011/04/halmtorvet2ny.jpg"
"177","Hammelstrupvej 114","2450","København SV","55.640612","12.519723","Handicap","Ved ikke","Nej","Ved ikke","Ved ikke","Ved ikke","Placering: Park, Valbyparken, ved Rosenhaven
Åbningstider:
Åbent fra 1. april til 30. september
Ca. 9.00 til 21:00
Ændrede åbningstider Jul, Nytår, Corona m.m.: https://www.kk.dk/toiletter/","København","sites/default/files/images/3/2014/04/hammelstrupvej114.jpg"
"178","Hammelstrupvej 98","2450","København SV","55.641763","12.520163","Handicap","Ved ikke","Nej","Ved ikke","Ved ikke","Ved ikke","Placering: Park, Valbyparken, ved restaurant
Åbningstider:
Åbent fra 1. april til 30. september
Ca. 9.00 til 21:00
Ændrede åbningstider Jul, Nytår, Corona m.m.: https://www.kk.dk/toiletter/","København","sites/default/files/images/3/2014/04/hammelstrupvej46.jpg"
"275","Hans Tavsens Gade 20","2200","København N","55.688641","12.548019","Handicap","Nej","Ved ikke","Ved ikke","Ved ikke","Ved ikke","Placering: Park, Hans Tavsens Park
Åbningstider:
Åbent fra 1. april til 30. september
Ca. 9.00 til 21:00
Ændrede åbningstider Jul, Nytår, Corona m.m.: https://www.kk.dk/toiletter/","København","sites/default/files/images/3/2016/01/hans-tavsens-gade20.jpg"
"338","Havkajakvej 14","2300","København S","55.648422","12.647289","Handicap","Ved ikke","Ved ikke","Ved ikke","Ved ikke","Ved ikke","Placering: Amager Strandpark, Strandprominaden syd
Åbningstider:
helaarsaabent: Ja
doegnaabent: Nej
Højsæson: 1. maj til 30. sep. Kl 8.00 til 22.00 alle ugens dage. Fra 1. juni til 31 august kl. 8.00 til 24.00 fredag, lørdag og søndag. Lavsæson: 1. okt til 30. april. Kl. 8.00 til 18.00 alle dage. Her er kun handicaptoilettet åbent. Handicaptoilet er helårsåbent.
Ændrede åbningstider Jul, Nytår, Corona m.m.: https://www.kk.dk/toiletter/","København","sites/default/files/images/3/2016/05/havkajakvej14_0.jpg"
"47","Havnegade 20","1058","København K","55.676341","12.588465","Handicap","Nej","Nej","Ja","Ja","Ja","Placering: Gade, Havnegade
Åbningstider:
Helårsåbent: ja
Døgnåbent: Ja
Ændrede åbningstider Jul, Nytår, Corona m.m.: https://www.kk.dk/toiletter/","København","sites/default/files/images/3/2011/03/havnegade20.jpg"
"861","Hiort Lorentzens Gade 10","2200","København N","55.688284","12.542905","Handicap","Nej","Nej","Ved ikke","Ved ikke","Ja","Placering: Nuuks Plads
Åbningstider:
helaarsaabent: Ja
doegnaabent: Ja
Ændrede åbningstider Jul, Nytår, Corona m.m.: https://www.kk.dk/toiletter/","København","sites/default/files/images/3/2022/04/findtoiletlogo300x300fotopaavej.jpg"
"482","Hulgårds Plads 4","2400","København NV","55.705476","12.522551","Handicap","Nej","Nej","Ved ikke","Ved ikke","Ja","Placering: Gade, Hulgårds Plads
Åbningstider:
Helårsåbent: ja
Døgnåbent: Ja
Ændrede åbningstider Jul, Nytår, Corona m.m.: https://www.kk.dk/toiletter/","København","sites/default/files/images/3/2017/09/hulgaards-plads4.jpg"
"46","Husum Torv 2","2700","Brønshøj","55.711708","12.471724","Handicap","Nej","Nej","Ja","Ja","Ja","Placering: Gade, Husum Torv
Åbningstider:
Helårsåbent: ja
Døgnåbent: Ja
Ændrede åbningstider Jul, Nytår, Corona m.m.: https://www.kk.dk/toiletter/","København","sites/default/files/images/3/2011/03/husum-torv2.jpg"
"211","Hyrdevangen 1","2400","København NV","55.707311","12.510325","Handicap","Ved ikke","Ved ikke","Ved ikke","Ved ikke","Ved ikke","Placering: Park, Brønshøjparken
Åbningstider:
Åbent fra 1. april til 30. september
Ca. 9.00 til 21:00
Ændrede åbningstider Jul, Nytår, Corona m.m.: https://www.kk.dk/toiletter/","København","sites/default/files/images/3/2014/04/hyrdevangen1.jpg"
"188","Islands Brygge 12","2300","København S","55.668399","12.578484","Handicap","Ved ikke","Ved ikke","Ved ikke","Ved ikke","Ved ikke","Placering: Gade, Islands Brygge, havneparken
Åbningstider:
Åbent fra 1. april til 30. september
Ca. 9.00 til 21:00
Ændrede åbningstider Jul, Nytår, Corona m.m.: https://www.kk.dk/toiletter/","København","sites/default/files/images/3/2014/04/islands-brygge-12.jpg"
"385","Islands Brygge 20A","2300","København S","55.665352","12.573933","Handicap","Nej","Nej","Ved ikke","Ved ikke","Ja","Placering: Gade, Islands Brygge
Åbningstider:
Helårsåbent: ja
Døgnåbent: Ja
Ændrede åbningstider Jul, Nytår, Corona m.m.: https://www.kk.dk/toiletter/","København","sites/default/files/images/3/2016/10/islands-brygge-20a_0.jpg"
"350","Kalvebod Brygge 3C","1560","København V","55.669141","12.575980","Handicap","Ved ikke","Ved ikke","Ved ikke","Ved ikke","Ved ikke","Placering: Gade, Bølgen, Kalvebod Brygge
Åbningstider:
Åbent fra 1. april til 30. september
Ca. 9.00 til 21:00
Ændrede åbningstider Jul, Nytår, Corona m.m.: https://www.kk.dk/toiletter/","København","sites/default/files/images/3/2016/05/kalvebod-brygge3c.jpg"
"139","Kapelvej 2","2200","København N","55.689449","12.553019","Handicap","Nej","Nej","Ja","Ja","Ja","Placering: Assistens Kirkegård vest https://www.kk.dk/artikel/assistens-kirkeg%C3%A5rd-p%C3%A5-n%C3%B8rrebro
Åbningstider:
mandag: 7.00 - 22.00 / 7.00 - 19.00
tirsdag: 7.00 - 22.00 / 7.00 - 19.00
onsdag: 7.00 - 22.00 / 7.00 - 19.00
torsdag: 7.00 - 22.00 / 7.00 - 19.00
fredag: 7.00 - 22.00 / 7.00 - 19.00
loerdag: 7.00 - 22.00 / 7.00 - 19.00
soendag: 7.00 - 22.00 / 7.00 - 19.00
doegnaabent: Nej
bemaerkning: Vinterhalvåret (oktober-marts) 07:00-19:00 Sommerhalvåret (april-september) 07:00-22:00
Ændrede åbningstider Jul, Nytår, Corona m.m.: https://www.kk.dk/toiletter/","København","sites/default/files/images/3/2013/04/kapelvej2.jpg"
"346","Kastrupvej 53","2300","København S","55.656695","12.618216","Handicap","Ved ikke","Ved ikke","Ved ikke","Ved ikke","Ved ikke","Placering: Sundby Kirkegård, i Kapel https://www.kk.dk/artikel/sundby-kirkeg%C3%A5rd-p%C3%A5-amager
Åbningstider:
mandag: 7.00 - 22.00 / 7.00 - 19.00
tirsdag: 7.00 - 22.00 / 7.00 - 19.00
onsdag: 7.00 - 22.00 / 7.00 - 19.00
torsdag: 7.00 - 22.00 / 7.00 - 19.00
fredag: 7.00 - 22.00 / 7.00 - 19.00
loerdag: 7.00 - 22.00 / 7.00 - 19.00
soendag: 7.00 - 22.00 / 7.00 - 19.00
doegnaabent: Nej
bemaerkning: Vinterhalvåret (oktober-marts) 07:00-19:00 Sommerhalvåret (april-september) 07:00-22:00
Ændrede åbningstider Jul, Nytår, Corona m.m.: https://www.kk.dk/toiletter/","København","sites/default/files/images/3/2016/05/kastrupvej53.jpg"
"187","Kastrupvej 74","2300","København S","55.653986","12.618588","Handicap","Ved ikke","Ved ikke","Ved ikke","Ved ikke","Ved ikke","Placering: Park, Filipsparken
Åbningstider:
Åbent fra 1. april til 30. september
Ca. 9.00 til 21:00
Ændrede åbningstider Jul, Nytår, Corona m.m.: https://www.kk.dk/toiletter/","København","sites/default/files/images/3/2014/04/kastrupvej74.jpg"
"66","Kejsergade 2","1155","København K","55.679984","12.575451","Handicap","Nej","Nej","Ja","Ja","Ja","Placering: Gade, Grå Brødre Torv
Åbningstider:
Helårsåbent: ja
Døgnåbent: Ja
Ændrede åbningstider Jul, Nytår, Corona m.m.: https://www.kk.dk/toiletter/","København","sites/default/files/images/3/2011/03/biggraabroedretorv.jpg"
"340","Kilometerbroen 3","2300","København S","55.658322","12.642967","Handicap","Ved ikke","Ved ikke","Ved ikke","Ved ikke","Ved ikke","Placering: Amager Strandpark, Kilometerbroen
Åbningstider:
helaarsaabent: Ja
doegnaabent: Nej
Højsæson: 1. maj til 30. sep. Kl 8.00 til 22.00 alle ugens dage. Fra 1. juni til 31 august kl. 8.00 til 24.00 fredag, lørdag og søndag. Lavsæson: 1. okt til 30. april. Kl. 8.00 til 18.00 alle dage. Her er kun handicaptoilettet åbent. Handicaptoilet er helårsåbent.
Ændrede åbningstider Jul, Nytår, Corona m.m.: https://www.kk.dk/toiletter/","København","sites/default/files/images/3/2016/05/kilometerbroen3.jpg"
"44","Krabbesholmvej 2","2700","Brønshøj","55.704191","12.498832","Handicap","Nej","Nej","Ja","Ja","Ja","Placering: Gade, Brønshøj Torv
Åbningstider:
Helårsåbent: ja
Døgnåbent: Ja
Ændrede åbningstider Jul, Nytår, Corona m.m.: https://www.kk.dk/toiletter/","København","sites/default/files/images/3/2011/03/krabbesholmvej2.jpg"
"140","Kultorvet 9B","1175","København K","55.682303","12.574019","Handicap","Nej","Nej","Ja","Ja","Ja","Placering: Gade, Kultorvet
Åbningstider:
Helårsåbent: ja
Døgnåbent: Ja
Ændrede åbningstider Jul, Nytår, Corona m.m.: https://www.kk.dk/toiletter/","København","sites/default/files/images/3/2013/04/kultorvet3ny_0.jpgsites/default/files/images/3/2013/04/kultorvet2ny_0.jpg"
"746","Kulturhuset Islands Brygge 18","2300","København S","55.666837","12.576278","Handicap","Nej","Nej","Ved ikke","Ved ikke","Ja","Placering: Handicap toilettet tilgås via elevator.
Åbningstider: https://kulturhusetislandsbrygge.kk.dk/","København","sites/default/files/images/1/2020/08/kulturhuset-islands-brygge18.jpgsites/default/files/images/1/2020/08/kulturhusetislandsbrygge.jpg"
"169","Langelinie 1","2100","København Ø","55.694604","12.594692","Handicap","Ved ikke","Ved ikke","Ved ikke","Ved ikke","Ved ikke","Placering: Park, Langelinie, østlige ende af bro
Åbningstider:
Åbent fra 1. april til 30. september
Ca. 9.00 til 21:00
Ændrede åbningstider Jul, Nytår, Corona m.m.: https://www.kk.dk/toiletter/","København","sites/default/files/images/3/2014/04/langelinie1.jpg"
"329","Langelinie 25","2100","København Ø","55.690616","12.599197","Handicap","Ved ikke","Ved ikke","Ved ikke","Ved ikke","Ved ikke","Placering: Park, Langelinie, Hvidtfeldtmonumentet
Åbningstider:
Åbent fra 1. april til 30. september
9.00 til 21:00 (19.00 om vinteren)
Ændrede åbningstider Jul, Nytår, Corona m.m.: https://www.kk.dk/toiletter/","København","sites/default/files/images/3/2016/05/langelinie25.jpg"
"42","Lyngbyvej 90","2100","København Ø","55.712948","12.560245","Handicap","Nej","Nej","Ja","Ja","Ja","Placering: Gade, Hans Knudsens Plads
Åbningstider:
Helårsåbent: ja
Døgnåbent: Ja
Ændrede åbningstider Jul, Nytår, Corona m.m.: https://www.kk.dk/toiletter/","København","sites/default/files/images/3/2011/03/lyngbyvej90.jpg"
"332","Matthæusgade 8","1666","København V","55.669960","12.551496","Handicap","Nej","Ved ikke","Ved ikke","Ved ikke","Ved ikke","Placering: Gade, Saxoparken
Åbningstider:
Helårsåbent: ja
Døgnåbent: Ja
Ændrede åbningstider Jul, Nytår, Corona m.m.: https://www.kk.dk/toiletter/","København","sites/default/files/images/3/2016/05/matthaeusgade8.jpg"
"49","Melchiors Plads 8","2100","København Ø","55.703550","12.585572","Handicap","Nej","Nej","Ja","Ja","Ja","Placering: Gade, Melchiors Plads
Åbningstider:
Helårsåbent: ja
Døgnåbent: Ja
Ændrede åbningstider Jul, Nytår, Corona m.m.: https://www.kk.dk/toiletter/","København","sites/default/files/images/3/2011/03/melchiors-plads8.jpg"
"59","Mozarts Plads 1A","2450","København SV","55.648710","12.534678","Handicap","Nej","Nej","Ja","Ja","Ja","Placering: Gade, Mozarts Plads
Åbningstider:
Helårsåbent: ja
Døgnåbent: Ja
Ændrede åbningstider Jul, Nytår, Corona m.m.: https://www.kk.dk/toiletter/","København","sites/default/files/images/3/2011/03/mozarts-plads1a.jpg"
"639","Møllegade 25c","2200","København N","55.692105","12.557286","Handicap","Ved ikke","Ved ikke","Ved ikke","Ved ikke","Ved ikke","Placering: Bemandet legeplads Byoasen
Åbningstider:
mandag: Følger legepladsens åbningstider
tirsdag: Følger legepladsens åbningstider
onsdag: Følger legepladsens åbningstider
torsdag: Følger legepladsens åbningstider
fredag: Følger legepladsens åbningstider
loerdag: Følger legepladsens åbningstider
soendag: Følger legepladsens åbningstider
doegnaabent: Nej
bemaerkning: Sommersæsonen (maj-oktober) mandag-fredag kl. 9.30-18 og søndag kl. 10-16. I vintersæsonen (november-februar) mandag -fredag 9.30-16 og 10-13 i weekenden. I mellemsæsonen (uge 10-17 + uge 40-43) mandag - fredag 9.30-16.30 og weekend 10-13.
Ændrede åbningstider Jul, Nytår, Corona m.m.: https://www.kk.dk/toiletter/","København","sites/default/files/images/1/2019/07/moellegade25c.jpg"
"683","Nannasgade 6","2200","København N","55.699854","12.549190","Handicap","Nej","Ved ikke","Ved ikke","Ved ikke","Ved ikke","Placering: Park, BaNanna Park
Åbningstider:
helaarsaabent: Ja
doegnaabent: Ja
Ændrede åbningstider Jul, Nytår, Corona m.m.: https://www.kk.dk/toiletter/","København","sites/default/files/images/1/2019/11/nannasgade16.jpg"
"12","Nyhavn 1F","1051","København K","55.680573","12.587758","Handicap","Nej","Ja","Ja","Ja","Ja","Placering: Gade, Underjordisk Nyhavn
Dametoilet til højre og Herretoilet til venstre for Canal Tours
Åbningstider:
9.00-22.30 alle dage
Ændrede åbningstider Jul, Nytår, Corona m.m.: https://www.kk.dk/toiletter/","København","sites/default/files/images/3/2011/02/2013-12-16132220.jpgsites/default/files/images/3/2011/02/foto12.jpgsites/default/files/images/3/2011/02/2013-12-16132105.jpgsites/default/files/images/3/2011/02/2013-12-16131827.jpgsites/default/files/images/3/2011/02/2013-12-16131639.jpgsites/default/files/images/3/2011/02/bignyhavn.jpgsites/default/files/images/3/2011/02/foto13.jpgsites/default/files/images/3/2011/02/foto14.jpg"
"357","Nørager Plads 23","2720","Vanløse","55.696272","12.475026","Handicap","Ved ikke","Ved ikke","Ved ikke","Ved ikke","Ved ikke","Placering: Bemandet legeplads Nørager Plads
Åbningstider:
mandag: Følger legepladsens åbningstider
tirsdag: Følger legepladsens åbningstider
onsdag: Følger legepladsens åbningstider
torsdag: Følger legepladsens åbningstider
fredag: Følger legepladsens åbningstider
loerdag: Følger legepladsens åbningstider
soendag: Følger legepladsens åbningstider
doegnaabent: Nej
bemaerkning: mandag-fredag: kl. 9.30-13 og lørdage i maj, juni og september kl. 13-16.
Ændrede åbningstider Jul, Nytår, Corona m.m.: https://www.kk.dk/toiletter/","København","sites/default/files/images/3/2016/05/noerager-plads23.jpg"
"60","Nørre Allé 2","2200","København N","55.691370","12.561250","Handicap","Nej","Nej","Ja","Ja","Ja","Placering: Gade, Sankt Hans Torv
Åbningstider:
Helårsåbent: ja
Døgnåbent: Ja
Ændrede åbningstider Jul, Nytår, Corona m.m.: https://www.kk.dk/toiletter/","København","sites/default/files/images/3/2011/03/noerre-alle2.jpg"
"342","Nørre Farimagsgade 2","1364","København K","55.680491","12.564608","Handicap","Ved ikke","Ved ikke","Ved ikke","Ved ikke","Ved ikke","Placering: Bemandet legeplads Ørstedsparken
Åbningstider:
mandag: Følger legepladsens åbningstider
tirsdag: Følger legepladsens åbningstider
onsdag: Følger legepladsens åbningstider
torsdag: Følger legepladsens åbningstider
fredag: Følger legepladsens åbningstider
loerdag: Følger legepladsens åbningstider
soendag: Følger legepladsens åbningstider
doegnaabent: Nej
bemaerkning: Legeplads med pædagogisk personale og aktivitetshus. Åbningstider: : I sommersæsonen (maj-september) 9-17 på hverdage og lørdag 10-17. I vintersæsonen (oktober-april) åbent herdage kl. 9-16.
Ændrede åbningstider Jul, Nytår, Corona m.m.: https://www.kk.dk/toiletter/","København","sites/default/files/images/3/2016/05/noerre-farimagsgade2.jpg"
"171","Nørre Farimagsgade 2A","1364","København K","55.680387","12.564560","Handicap","Ved ikke","Ved ikke","Ved ikke","Ved ikke","Ved ikke","Placering: Park, Ørstedsparken, tæt på legeplads
Åbningstider:
Åbent fra 1. april til 30. september
9.00 til 21:00 (19.00 om vinteren)
Ændrede åbningstider Jul, Nytår, Corona m.m.: https://www.kk.dk/toiletter/","København","sites/default/files/images/3/2014/04/noerre-farimagsgade2a.jpg"
"212","Nørre Voldgade 15B","1358","København K","55.683049","12.571366","Handicap","Nej","Ja","Ja","Ja","Ja","Placering: Gade, Nørreport station
Åbningstider:
8.00-22.00 alle dage
Ændrede åbningstider Jul, Nytår, Corona m.m.: https://www.kk.dk/toiletter/
6 unisex toiletter
1 handicap toilet med egen indgang. Pr. 25.5.2022 nu også med personlift. Personalet yder ikke assistance.
1 pissoir med egen indgang","København","sites/default/files/images/3/2015/01/image2.jpegsites/default/files/images/3/2015/01/image5.jpegsites/default/files/images/3/2015/01/image4.jpegsites/default/files/images/3/2015/01/image3.jpegsites/default/files/images/3/2015/01/image1.jpegsites/default/files/images/3/2015/01/cphnoerreporthandicap.jpeg"
"678","Parmagade 45","2300","København S","55.654049","12.618546","Handicap","Nej","Ved ikke","Ved ikke","Ved ikke","Ved ikke","Placering: Bemandet legeplads Filipsparken (Elba), legeplads
Åbningstider:
mandag: Følger legepladsens åbningstider
tirsdag: Følger legepladsens åbningstider
onsdag: Følger legepladsens åbningstider
torsdag: Følger legepladsens åbningstider
fredag: Følger legepladsens åbningstider
loerdag: Følger legepladsens åbningstider
soendag: Følger legepladsens åbningstider
doegnaabent: Nej
bemaerkning: Sommersæson (maj til september) mandag-fredag kl. 9.30-18.00. I vintersæsonen (oktober-april) 9.30-16.30.
Ændrede åbningstider Jul, Nytår, Corona m.m.: https://www.kk.dk/toiletter/","København","sites/default/files/images/1/2019/08/parmagade45.jpg"
"354","Peder Lykkes Vej 71","2300","København S","55.652713","12.598081","Handicap","Ved ikke","Ved ikke","Ved ikke","Ved ikke","Ved ikke","Placering: Bemandet legeplads Remiseparken, Bondegårdslegepladsen
Åbningstider:
mandag: Følger legepladsens åbningstider
tirsdag: Følger legepladsens åbningstider
onsdag: Følger legepladsens åbningstider
torsdag: Følger legepladsens åbningstider
fredag: Følger legepladsens åbningstider
loerdag: Følger legepladsens åbningstider
soendag: Følger legepladsens åbningstider
doegnaabent: Nej
bemaerkning: Sommersæson maj-sep (uge 18-39) mandag-fredag kl. 9.30-17.00, lørdag-søndag kl. 9.30-16.00. Vintersæson okt-april (uge 40-17) mandag-fredag kl. 9.30-17.00, lørdag-søndag kl. 9.30-16.00
Ændrede åbningstider Jul, Nytår, Corona m.m.: https://www.kk.dk/toiletter/","København","sites/default/files/images/3/2016/05/peder-lykkes-vej21.jpg"
"195","Per Henrik Lings Allé 5","2100","København Ø","55.703159","12.570673","Handicap","Ved ikke","Ved ikke","Ved ikke","Ved ikke","Ved ikke","Placering: Park, Fælledparken ved kiosk
Åbningstider:
Åbent fra 1. april til 30. september
Ca. 9.00 til 21:00
Ændrede åbningstider Jul, Nytår, Corona m.m.: https://www.kk.dk/toiletter/","København","sites/default/files/images/3/2014/04/henrik-lings-alle5.jpg"
"205","Pilesvinget 80","2700","Brønshøj","55.708825","12.486400","Handicap","Nej","Nej","Ved ikke","Ved ikke","Ved ikke","Placering: Park, Pilesvinget
Åbningstider:
Åbent fra 1. april til 30. september
9.00 til 21:00 (19.00 om vinteren)
Ændrede åbningstider Jul, Nytår, Corona m.m.: https://www.kk.dk/toiletter/","København","sites/default/files/images/3/2014/04/pilesvinget80.jpg"
"196","Rymarksvej 75B","2900","Hellerup","55.722010","12.563557","Handicap","Nej","Nej","Ved ikke","Ved ikke","Ved ikke","Placering: Park, Ryvangens Naturpark
Åbningstider:
Åbent fra 1. april til 30. september
Ca. 9.00 til 21:00
Ændrede åbningstider Jul, Nytår, Corona m.m.: https://www.kk.dk/toiletter/","København","sites/default/files/images/3/2014/04/rymarksvej75b.jpg"
"185","Rødegård 8A","2300","København S","55.661051","12.611136","Handicap","Ved ikke","Ved ikke","Ved ikke","Ved ikke","Ved ikke","Placering: Park, Rødegårdsparken
Åbningstider:
Åbent fra 1. april til 30. september
Ca. 9.00 til 21:00
Ændrede åbningstider Jul, Nytår, Corona m.m.: https://www.kk.dk/toiletter/","København","sites/default/files/images/3/2014/04/roedegaard8a.jpg"
"130","Rådhuspladsen 5-7","1550","København V","55.676169","12.568555","Handicap","Nej","Ja","Ja","Ja","Ja","Placering: Gade, Underjordisk Rådhuspladsen
Åbningstider: 9-22:30 alle ugens dage.
Ændrede åbningstider Jul, Nytår, Corona m.m.: https://www.kk.dk/toiletter/
Der er 3 stk. kombinerede handicaptoilet/familierum samt i alt 12 toiletter. Pissoir er endnu ikke tilgængeligt.
Toilettet tilgås ved ned-/opgang til Metrostationen under Rådhuspladsen ved Vester Voldgade.
Der er separat adgang med elevator for kørestolsbrugere mv. og barnevogne. Elevatoren kan ikke bruges til metrostationen.","København","sites/default/files/images/3/2012/09/iosappraadhuspladsen.pngsites/default/files/images/3/2012/09/image002.pngsites/default/files/images/3/2012/09/image016.pngsites/default/files/images/3/2012/09/image017.pngsites/default/files/images/3/2012/09/image018.pngsites/default/files/images/3/2012/09/image019.pngsites/default/files/images/3/2012/09/image020.pngsites/default/files/images/3/2012/09/image021.png"
"686","Sandkaj 37","2150","Nordhavn","55.706277","12.597487","Handicap","Nej","Nej","Nej","Nej","Ja","Placering: Sandkaj, flydende aktivitetshus https://www.tv2lorry.dk/kobenhavn/nu-far-nordhavn-et-flydende-aktivitetshus
Åbningstider:
Mandag: Ca. 9.00 - 21.00 (19.00 om vinteren)
Tirsdag: Ca. 9.00 - 21.00 (19.00 om vinteren)
Onsdag: Ca. 9.00 - 21.00 (19.00 om vinteren)
Torsdag: Ca. 9.00 - 21.00 (19.00 om vinteren)
Fredag: Ca. 9.00 - 21.00 (19.00 om vinteren)
Lørdag: Ca. 9.00 - 21.00 (19.00 om vinteren)
Søndag: Ca. 9.00 - 21.00 (19.00 om vinteren)
Ændrede åbningstider Jul, Nytår, Corona m.m.: https://www.kk.dk/toiletter/","København","sites/default/files/images/1/2020/05/byoghavnsandkaj.jpg"
"190","Serridslevvej 35","2100","København Ø","55.706806","12.571253","Handicap","Ved ikke","Nej","Ved ikke","Ved ikke","Ved ikke","Placering: Park, Fælledparken, Seridsslevvej nord
Åbningstider:
Åbent fra 1. april til 30. september
9.00 til 21:00 (19.00 om vinteren)
Ændrede åbningstider Jul, Nytår, Corona m.m.: https://www.kk.dk/toiletter/","København","sites/default/files/images/3/2014/04/serridslevvej35.jpg"
"210","Solkrogen 8","2700","Brønshøj","55.703182","12.509605","Handicap","Ved ikke","Ved ikke","Ved ikke","Ved ikke","Ved ikke","Placering: Park, Solkrogen
Åbningstider:
Åbent fra 1. april til 30. september
9.00 til 21:00 (19.00 om vinteren)
Ændrede åbningstider Jul, Nytår, Corona m.m.: https://www.kk.dk/toiletter/","København","sites/default/files/images/3/2014/04/solkrogen8.jpg"
"331","Standpromenaden 30","2100","København Ø","55.719539","12.583029","Handicap","Ved ikke","Ved ikke","Ved ikke","Ved ikke","Ved ikke","Placering: Park, Svanemølle Strandpark
Åbningstider:
Åbent fra 1. april til 30. september
9.00 til 21:00 (19.00 om vinteren)
Handicaptoilettet er åbent hele året. De andre toiletter er åbne fra 1. april til 30. september
Ændrede åbningstider Jul, Nytår, Corona m.m.: https://www.kk.dk/toiletter/","København","sites/default/files/images/3/2016/05/strandpromenaden30.jpg"
"199","Stefansgade 24","2200","København N","55.694865","12.542849","Handicap","Nej","Nej","Ved ikke","Ved ikke","Ved ikke","Placering: Park, Nørrebroparken
Åbningstider:
Åbent fra 1. april til 30. september
9.00 til 21:00 (19.00 om vinteren)
Ændrede åbningstider Jul, Nytår, Corona m.m.: https://www.kk.dk/toiletter/","København","sites/default/files/images/3/2014/04/stefansgade24.jpg"
"173","Stockholmsgade 62","2100","København Ø","55.692469","12.584244","Handicap","Ved ikke","Ved ikke","Ved ikke","Ved ikke","Ved ikke","Placering: Park, Østre Anlæg
Åbningstider:
Åbent fra 1. april til 30. september
Ca. 9.00 til 21:00
Ændrede åbningstider Jul, Nytår, Corona m.m.: https://www.kk.dk/toiletter/","København","sites/default/files/images/3/2014/04/stockholmsgade62.jpg"
"61","Sundbyvester Plads 2A","2300","København K","55.646622","12.613326","Handicap","Nej","Nej","Ja","Ja","Ja","Placering: Gade, Sundbyvester Plads
Åbningstider:
Helårsåbent: ja
Døgnåbent: Ja
Ændrede åbningstider Jul, Nytår, Corona m.m.: https://www.kk.dk/toiletter/","København","sites/default/files/images/3/2011/03/sundbyvester-plads2a.jpg"
"63","Sønder Boulevard 60B","1720","København V","55.666095","12.551496","Handicap","Nej","Nej","Ja","Ja","Ja","Placering: Gade, Sønder Boulevard
Åbningstider: Ca. 9.00 til 22:00
Ændrede åbningstider Jul, Nytår, Corona m.m.: https://www.kk.dk/toiletter/","København","sites/default/files/images/3/2011/03/soender-boulevard60b.jpgsites/default/files/images/3/2011/03/sonderboulevardofnr603ny.jpgsites/default/files/images/3/2011/03/sonderboulevardofnr602ny.jpgsites/default/files/images/3/2011/03/sonderboulevardofnr60ny.jpg"
"56","Toftegårds Plads 2F","2500","Valby","55.661840","12.517536","Handicap","Nej","Nej","Ja","Ja","Ja","Placering: Gade, Toftegårds plads
Åbningstider:
Ca. 9.00 til 22:00
Ændrede åbningstider Jul, Nytår, Corona m.m.: https://www.kk.dk/toiletter/","København","sites/default/files/images/3/2011/03/toftegaards-plads2f.jpg"
"131","Torvegade 48","1410","København K","55.671980","12.591800","Handicap","Nej","Nej","Ja","Ja","Ja","Placering: Gade, Christianshavns Torv
Åbningstider:
Helårsåbent: ja
Døgnåbent: Ja
Ændrede åbningstider Jul, Nytår, Corona m.m.: https://www.kk.dk/toiletter/","København","sites/default/files/images/3/2012/09/torvegade48.jpgsites/default/files/images/3/2012/09/christianhavnstorv2.jpgsites/default/files/images/3/2012/09/christianhavnstorvny.jpgsites/default/files/images/3/2012/09/christianshavnstorv1.jpg"
"51","Valby tingsted 1B","2500","Valby","55.666027","12.514116","Handicap","Nej","Nej","Ja","Ja","Ja","Placering: Gade, Valby tingsted
Åbningstider:
Helårsåbent: ja
Døgnåbent: Ja
Ændrede åbningstider Jul, Nytår, Corona m.m.: https://www.kk.dk/toiletter/","København","sites/default/files/images/3/2011/03/valby-tingsted1b.jpg"
"70","Ved Stranden 18A","1061","København K","55.677576","12.580907","Handicap","Nej","Nej","Ja","Ja","Ja","Placering: Gade, Ved Stranden
Åbningstider:
Helårsåbent: ja
Døgnåbent: Ja
Ændrede åbningstider Jul, Nytår, Corona m.m.: https://www.kk.dk/toiletter/","København","sites/default/files/images/3/2011/04/ved-stranden18a.jpgsites/default/files/images/3/2011/04/2014-07-29163237.jpgsites/default/files/images/3/2011/04/2014-07-29163339.jpgsites/default/files/images/3/2011/04/2014-07-29163517.jpg"
"299","Vester Søgade 2","1601","København V","55.674807","12.558971","Handicap","Nej","Nej","Ved ikke","Ved ikke","Ved ikke","Placering: Planetariet
Åbningstider:
helaarsaabent: Ja
doegnaabent: Ja
Ændrede åbningstider Jul, Nytår, Corona m.m.: https://www.kk.dk/toiletter/","København","sites/default/files/images/3/2016/03/vester-soegade2.jpg"
"69","Ørestads Boulevard 66","2300","København S","55.633288","12.579978","Handicap","Nej","Nej","Ja","Ja","Ja","Placering: Gade, Ørestadsparken
Åbningstider:
Helårsåbent: ja
Døgnåbent: Ja
Ændrede åbningstider Jul, Nytår, Corona m.m.: https://www.kk.dk/toiletter/","København","sites/default/files/images/3/2011/04/oerestads-boulevart66.jpg"
"341","Øresundsstien 5","2300","København S","55.663012","12.638636","Handicap","Ved ikke","Ved ikke","Ved ikke","Ved ikke","Ved ikke","Placering: Amager Strandpark, Øresundsstien
Åbningstider:
helaarsaabent: Ja
doegnaabent: Nej
Højsæson: 1. maj til 30. sep. Kl 8.00 til 22.00 alle ugens dage. Fra 1. juni til 31 august kl. 8.00 til 24.00 fredag, lørdag og søndag. Lavsæson: 1. okt til 30. april. Kl. 8.00 til 18.00 alle dage. Her er kun handicaptoilettet åbent. Handicaptoilet er helårsåbent.
Ændrede åbningstider Jul, Nytår, Corona m.m.: https://www.kk.dk/toiletter/","København","sites/default/files/images/3/2016/05/oeresundsstien5.jpg"
"640","Øselsgade 5","2300","København S","55.661005","12.600624","Handicap","Ved ikke","Ved ikke","Ved ikke","Ved ikke","Ved ikke","Placering: Bemandet legeplads Kornblomstparken
Åbningstider:
mandag: Følger legepladsens åbningstider
tirsdag: Følger legepladsens åbningstider
onsdag: Følger legepladsens åbningstider
torsdag: Følger legepladsens åbningstider
fredag: Følger legepladsens åbningstider
loerdag: Følger legepladsens åbningstider
soendag: Følger legepladsens åbningstider
doegnaabent: Nej
bemaerkning: Mandag-onsdag kl. 9.30-18. Torsdag 12-20. Fredag 12 -18 og lørdag fra kl 10-17.
Ændrede åbningstider Jul, Nytår, Corona m.m.: https://www.kk.dk/toiletter/","København","sites/default/files/images/1/2019/07/oeselsgade5.jpg"
"194","Øster Allé 1E","2100","København Ø","55.699950","12.573372","Handicap","Ved ikke","Ved ikke","Ved ikke","Ved ikke","Ved ikke","Placering: Park, Fælledparken, Sansehaven
Åbningstider:
Åbent fra 1. april til 30. september
Ca. 9.00 til 21:00
Ændrede åbningstider Jul, Nytår, Corona m.m.: https://www.kk.dk/toiletter/","København","sites/default/files/images/3/2014/04/oester-alle1e.jpg"
"386","Østerbrogade 244","2100","København Ø","55.714884","12.577939","Handicap","Nej","Nej","Ved ikke","Ved ikke","Ja","Placering: Gade, Sporsløjfen, v. Svanemølle st.
Åbningstider:
Helårsåbent: ja
Døgnåbent: Ja
Ændrede åbningstider Jul, Nytår, Corona m.m.: https://www.kk.dk/toiletter/","København","sites/default/files/images/3/2016/10/oesterbrogade244.jpg"
"135","Østerbrogade 29B","2100","København Ø","55.699301","12.577521","Handicap","Nej","Ja","Ja","Ja","Ja","Placering: Gade, Trianglen
Åbningstider: 
9.00-18.30 alle dage
Ændrede åbningstider Jul, Nytår, Corona m.m.: https://www.kk.dk/toiletter/","København","sites/default/files/images/3/2013/04/oesterbrogade29b.jpgsites/default/files/images/3/2013/04/bemandettoilettrianglen2.jpgsites/default/files/images/3/2013/04/bemandettoilettrianglen.jpg"
"184","Østrigsgade 67","2300","København S","55.661741","12.617156","Handicap","Ved ikke","Ved ikke","Ved ikke","Ved ikke","Ved ikke","Placering: Park, Lergravsparken, ved metro
Åbningstider:
Åbent fra 1. april til 30. september
9.00 til 21:00 (19.00 om vinteren)
Ændrede åbningstider Jul, Nytår, Corona m.m.: https://www.kk.dk/toiletter/","København","sites/default/files/images/3/2014/04/oestrigsade67.jpg"
"38","Blågårds Plads 5B","2200","København N","55.686248","12.557011","Pissoir","Nej","Nej","Nej","Nej","Nej","Placering: Gade, Blågårds Plads
Åbningstider:
helaarsaabent: Nej- Vinterlukket fra 1/10 til 31/3
aabent_april_sept: x - lukkes når frosten kommer
doegnaabent: Ja
Ændrede åbningstider Jul, Nytår, Corona m.m.: https://www.kk.dk/toiletter/","København","sites/default/files/images/3/2011/03/blaagaards-plads5b.jpg"
"71","Istedgade 20","1650","København V","55.671690","12.560541","Pissoir","Nej","Nej","Nej","Nej","Nej","Placering: Gade, Maria Kirkeplads
Åbningstider:
helaarsaabent: Nej- Vinterlukket fra 1/10 til 31/3
aabent_april_sept: x - lukkes når frosten kommer
doegnaabent: Ja
Ændrede åbningstider Jul, Nytår, Corona m.m.: https://www.kk.dk/toiletter/","København","sites/default/files/images/3/2011/04/istedgade20.jpg"
"52","Korsgade 58B","2200","København N","55.686647","12.553934","Pissoir","Nej","Nej","Nej","Nej","Nej","Placering: Gade, Korsgade 58
Åbningstider:
helaarsaabent: Nej- Vinterlukket fra 1/10 til 31/3
aabent_april_sept: x - lukkes når frosten kommer
doegnaabent: Ja
Ændrede åbningstider Jul, Nytår, Corona m.m.: https://www.kk.dk/toiletter/","København","sites/default/files/images/3/2011/03/korsgade58b.jpg"
"55","Nikolaj Plads 10b","1067","København K","55.679010","12.581870","Pissoir","Nej","Nej","Nej","Nej","Nej","Placering: Gade, Nikolaj Plads
Åbningstider:
helaarsaabent: Nej- Vinterlukket fra 1/10 til 31/3
aabent_april_sept: x - lukkes når frosten kommer
doegnaabent: Ja
Ændrede åbningstider Jul, Nytår, Corona m.m.: https://www.kk.dk/toiletter/","København","sites/default/files/images/3/2011/03/nikolaj-plads10b.jpgsites/default/files/images/3/2011/03/nikolajplads.jpg"
"29","Nyhavn 28","1051","København K","55.679549","12.591002","Pissoir","Nej","Nej","Nej","Nej","Nej","Placering: Gade, Nyhavn
Åbningstider:
helaarsaabent: Nej- Vinterlukket fra 1/10 til 31/3
aabent_april_sept: x - lukkes når frosten kommer
doegnaabent: Ja
Ændrede åbningstider Jul, Nytår, Corona m.m.: https://www.kk.dk/toiletter/","København","sites/default/files/images/3/2011/03/2013-10-11161115.jpg"
"7","Nyhavn 47C","1051","København K","55.679813","12.591223","Pissoir","Nej","Nej","Nej","Nej","Nej","Placering: Gade, Nyhavn
Åbningstider:
helaarsaabent: Nej- Vinterlukket fra 1/10 til 31/3
aabent_april_sept: x - lukkes når frosten kommer
doegnaabent: Ja
Ændrede åbningstider Jul, Nytår, Corona m.m.: https://www.kk.dk/toiletter/","København","sites/default/files/images/3/2010/12/2013-10-11161244.jpg"
"58","Nytorv 29","1450","København K","55.677490","12.572660","Pissoir","Nej","Nej","Nej","Nej","Nej","Placering: Gade, Nytorv
Åbningstider:
helaarsaabent: Nej- Vinterlukket fra 1/10 til 31/3
aabent_april_sept: x - lukkes når frosten kommer
doegnaabent: Ja
Ændrede åbningstider Jul, Nytår, Corona m.m.: https://www.kk.dk/toiletter/","København","sites/default/files/images/3/2011/03/nytorv2.jpgsites/default/files/images/3/2011/03/nytorv1ny.jpgsites/default/files/images/3/2011/03/2014-07-29160704.jpg"
"632","Nørre Voldgade 15B","1358","København K","55.683037","12.571291","Pissoir","Nej","Nej","Nej","Nej","Nej","Placering: Gade, Nørreport station
Åbningstider:
helaarsaabent: Ja
doegnaabent: Ja
Ændrede åbningstider Jul, Nytår, Corona m.m.: https://www.kk.dk/toiletter/","København","sites/default/files/images/1/2019/07/noerre-voldgade15b.jpg"
"633","Overgaden oven Vandet 64A","1415","København K","55.674969","12.595253","Pissoir","Nej","Nej","Nej","Nej","Nej","Placering: Gade, Overgaden oven Vandet
Åbningstider:
helaarsaabent: Nej- Vinterlukket fra 1/10 til 31/3
aabent_april_sept: x - lukkes når frosten kommer
doegnaabent: Ja
Ændrede åbningstider Jul, Nytår, Corona m.m.: https://www.kk.dk/toiletter/","København","sites/default/files/images/1/2019/07/overgaden-oven-vandet64a.jpg"
"54","Stockholmsgade 2","2100","København Ø","55.689418","12.575475","Pissoir","Nej","Nej","Nej","Nej","Nej","Placering: Gade, Sølvtorvet
Åbningstider:
helaarsaabent: Nej- Vinterlukket fra 1/10 til 31/3
aabent_april_sept: x - lukkes når frosten kommer
doegnaabent: Ja
Ændrede åbningstider Jul, Nytår, Corona m.m.: https://www.kk.dk/toiletter/","København","sites/default/files/images/3/2011/03/stockholmsgade2.jpg"
"53","Toftegårds Plads 6F","2500","Valby","55.662306","12.517405","Pissoir","Nej","Nej","Nej","Nej","Nej","Placering: Gade, Toftegårds Plads
Åbningstider:
helaarsaabent: Nej- Vinterlukket fra 1/10 til 31/3
aabent_april_sept: x - lukkes når frosten kommer
doegnaabent: Ja
Ændrede åbningstider Jul, Nytår, Corona m.m.: https://www.kk.dk/toiletter/","København","sites/default/files/images/3/2011/03/toftegaards-plads6f.jpg"
"35","Utterslev Torv 9","2400","København NV","55.710055","12.516928","Pissoir","Nej","Nej","Nej","Nej","Nej","Placering: Gade, Utterslev Torv
Åbningstider:
helaarsaabent: Nej- Vinterlukket fra 1/10 til 31/3
aabent_april_sept: x - lukkes når frosten kommer
doegnaabent: Ja
Ændrede åbningstider Jul, Nytår, Corona m.m.: https://www.kk.dk/toiletter/","København","sites/default/files/images/3/2011/03/utterslev-torv9.jpg"
"337","Amager Strandvej 275","2300","København S","55.646201","12.644020","Unisex","Ved ikke","Ved ikke","Ved ikke","Ved ikke","Ved ikke","Placering: Amager Strandvej, Femøren
Åbningstider:
helaarsaabent: Ja
doegnaabent: Nej
Højsæson: 1. maj til 30. sep. Kl 8.00 til 22.00 alle ugens dage. Fra 1. juni til 31 august kl. 8.00 til 24.00 fredag, lørdag og søndag. Lavsæson: 1. okt til 30. april. Kl. 8.00 til 18.00 alle dage.
Ændrede åbningstider Jul, Nytår, Corona m.m.: https://www.kk.dk/toiletter/","København","sites/default/files/images/3/2016/05/amager-strandvej275.jpg"
"34","Amagertorv 1F","1160","København K","55.678826","12.579556","Unisex","Nej","Ja","Ja","Ja","Ja","Placering: Gade, Underjordisk Amagertorv
Åbningstider:
9.00-22.30 alle dage
Ændrede åbningstider Jul, Nytår, Corona m.m.: https://www.kk.dk/toiletter/
Dametoilet til højre og Herretoilet til venstre","København","sites/default/files/images/3/2011/03/2014-07-29162056.jpgsites/default/files/images/3/2011/03/2014-07-29162315.jpgsites/default/files/images/3/2011/03/foto8.jpgsites/default/files/images/3/2011/03/foto9.jpgsites/default/files/images/3/2011/03/foto11.jpgsites/default/files/images/3/2011/03/foto10.jpg"
"860","Ben Websters Vej 69","2450","København SV","55.646499","12.554031","Unisex","Nej","Nej","Ved ikke","Ved ikke","Ja","Placering: Koralbadet
https://svoemkbh.kk.dk/sluseholmen
Åbningstider:
helaarsaabent: Nej
Vinterlukket fra 1/10 til 31/3
doegnaabent: Ja
Ændrede åbningstider Jul, Nytår, Corona m.m.: https://www.kk.dk/toiletter/","København","sites/default/files/images/3/2022/04/ben-websters-vej69.jpg"
"634","Blegdamsvej 132a","2100","København Ø","55.698552","12.576545","Unisex","Ved ikke","Ved ikke","Ved ikke","Ved ikke","Ved ikke","Placering: Bemandet legeplads Blegdamsremisen
Åbningstider:
mandag: Følger legepladsens åbningstider
tirsdag: Følger legepladsens åbningstider
onsdag: Følger legepladsens åbningstider
torsdag: Følger legepladsens åbningstider
fredag: Følger legepladsens åbningstider
loerdag: Følger legepladsens åbningstider
soendag: Følger legepladsens åbningstider
doegnaabent: Nej
bemaerkning: Sommersæson maj-sep (uge 18-39) mandag-fredag kl. 9.00-16.30. Vintersæson oktober-april (uge 40-17) mandag-fredag kl. 9.00-17.00, lørdag-søndag kl. 10.00-16.00.
Ændrede åbningstider Jul, Nytår, Corona m.m.: https://www.kk.dk/toiletter/","København","sites/default/files/images/1/2019/07/blegdamsvej132a.jpg"
"635","Borgmestervangen 51","2200","København N","55.704799","12.541201","Unisex","Ved ikke","Ved ikke","Ved ikke","Ved ikke","Ved ikke","Placering: Bemandet legeplads Mimersparken
Åbningstider:
Mandag: Følger legepladsens åbningstider
Tirsdag: Følger legepladsens åbningstider
Onsdag: Følger legepladsens åbningstider
Torsdag: Følger legepladsens åbningstider
Fredag: Følger legepladsens åbningstider
Lørdag: Når legepladsen er lukket da ca. ca. 9.00 - 21.00 (19.00 om vinteren)
Søndag: Når legepladsen er lukket da ca. ca. 9.00 - 21.00 (19.00 om vinteren)
Åbningstider legeplads sommer (uge 18-38): Mandag til fredag kl. 9 til 18. Lørdag og søndag kl. 10 til 17. Åbningstider legeplads vinter (uge 39-17): Mandag til fredag kl. 9 til 17. Lørdag kl 11 til16. Søndag lukket.
Ændrede åbningstider Jul, Nytår, Corona m.m.: https://www.kk.dk/toiletter/","København","sites/default/files/images/1/2019/07/borgmestervangen51.jpg"
"349","Bredegrund 8","2300","København S","55.659015","12.613490","Unisex","Ved ikke","Ved ikke","Ved ikke","Ved ikke","Ved ikke","Placering: Bemandet legeplads Bredegrund
Åbningstider:
mandag: Følger legepladsens åbningstider
tirsdag: Følger legepladsens åbningstider
onsdag: Følger legepladsens åbningstider
torsdag: Følger legepladsens åbningstider
fredag: Følger legepladsens åbningstider
loerdag: Følger legepladsens åbningstider
soendag: Følger legepladsens åbningstider
doegnaabent: Nej
bemaerkning: Sommersæsonen (maj-oktober) mandag-fredag kl. 9-18 og søndag kl. 10-16. I vintersæsonen (november-februar) mandag -fredag 9-16. I mellemsæsonen (uge 10-17 + uge 43-45) mandag - fredag 9-17
Ændrede åbningstider Jul, Nytår, Corona m.m.: https://www.kk.dk/toiletter/","København","sites/default/files/images/3/2016/05/bredegrund8.jpg"
"5","Christiansborg Slotsplads 2","1218","København K","55.676600","12.582200","Unisex","Nej","Nej","Nej","Nej","Nej","Placering: Christiansborg Slotsplads, Holmens Bro
Åbningstider:
helaarsaabent: Ja
doegnaabent: Ja
Ændrede åbningstider Jul, Nytår, Corona m.m.: https://www.kk.dk/toiletter/","København","sites/default/files/images/3/2010/12/christiansborgslotsplads2.jpg"
"201","Damhusdæmningen 14","2720","Vanløse","55.682449","12.468016","Unisex","Nej","Nej","Ved ikke","Ved ikke","Ved ikke","Placering: Park, Damhusdæmningen, Engen
Åbningstider:
Åbent fra 1. april til 30. september
Ca. 9.00 til 21:00
Ændrede åbningstider Jul, Nytår, Corona m.m.: https://www.kk.dk/toiletter/","København","sites/default/files/images/3/2014/04/damhusdaemningen14.jpg"
"641","Degnestavnen 20","2400","København NV","55.710617","12.524950","Unisex","Ved ikke","Ved ikke","Ved ikke","Ved ikke","Ved ikke","Placering: Park, Degnestavnen, ved legeplads
https://bornibyen.dk/koebenhavn/places/1088-legepladsen-i-degnestavnen
Åbningstider:
helaarsaabent: Ja
doegnaabent: Nej
Følger legepladsens åbningstider
Ændrede åbningstider Jul, Nytår, Corona m.m.: https://www.kk.dk/toiletter/","København","sites/default/files/images/1/2019/08/degnestavnen20.jpg"
"65","Dyrkøb 2","1166","København K","55.679306","12.573532","Unisex","Nej","Nej","Nej","Nej","Ja","Placering: Vor frue plads
Åbningstider:
helaarsaabent: Ja
doegnaabent: Ja
Ændrede åbningstider Jul, Nytår, Corona m.m.: https://www.kk.dk/toiletter/","København","sites/default/files/images/3/2011/03/dyrkoep2.jpgsites/default/files/images/3/2011/03/vorfrueplads.jpgsites/default/files/images/3/2011/03/2014-07-16174201.jpgsites/default/files/images/3/2011/03/2014-07-16174251.jpg"
"325","Edel Sauntes Allé 1","2100","København Ø","55.698973","12.562361","Unisex","Nej","Ved ikke","Ved ikke","Ved ikke","Ved ikke","Placering: Park, Fælledparken, Bikuben
Åbningstider:
Åbent fra 1. april til 30. september
Ca. 9.00 til 21:00
Ændrede åbningstider Jul, Nytår, Corona m.m.: https://www.kk.dk/toiletter/","København","sites/default/files/images/3/2016/05/edel-sauntes-alle1.jpg"
"642","Edel Sauntes Allé 9","2100","København Ø","55.700375","12.564140","Unisex","Ved ikke","Ved ikke","Ved ikke","Ved ikke","Ved ikke","Placering: Park, Soppesøen
Åbningstider:
Åbent fra 1. april til 30. september
Ca. 9.00 til 21:00
Kun åbent når der er vand i soppesøen
Ændrede åbningstider Jul, Nytår, Corona m.m.: https://www.kk.dk/toiletter/","København","sites/default/files/images/1/2019/08/edel-sauntes-alle9.jpg"
"326","Ejderstedgade 1","1761","København V","55.667912","12.541712","Unisex","Ved ikke","Nej","Ved ikke","Ved ikke","Ved ikke","Placering: Bemandet legeplads Enghaveparken
Åbningstider:
mandag: Følger legepladsens åbningstider
tirsdag: Følger legepladsens åbningstider
onsdag: Følger legepladsens åbningstider
torsdag: Følger legepladsens åbningstider
fredag: Følger legepladsens åbningstider
loerdag: Følger legepladsens åbningstider
soendag: Følger legepladsens åbningstider
doegnaabent: Nej
bemaerkning: Sommersæson (maj til september) mandag-fredag kl. 9-18 og søndag 10-17. I mellemsæsonen (marts, april og oktober) mandag-fredag 9-17. I vintersæsonen (november-februar) mandag - fredag 9-16.
Ændrede åbningstider Jul, Nytår, Corona m.m.: https://www.kk.dk/toiletter/","København","sites/default/files/images/3/2016/05/ejderstedgade1.jpg"
"31","Frederiksborggade 21","1360","København K","55.684300","12.569500","Unisex","Nej","Ja","Ja","Ja","Ja","Placering: Gade, Underjordisk Israels Plads
Åbningstider:
8.00-22.00 alle dage
Ændrede åbningstider Jul, Nytår, Corona m.m.: https://www.kk.dk/toiletter/","København","sites/default/files/images/3/2011/03/bemandettoiletisraelsplads3.jpgsites/default/files/images/3/2011/03/bemandettoiletisraelsplads2.jpgsites/default/files/images/3/2011/03/bemandettoiletisraelsplads1.jpg"
"36","Gammel Torv 22f","1457","København K","55.678112","12.571727","Unisex","Nej","Nej","Nej","Nej","Ja","Placering: Gammel Torv
Åbningstider:
helaarsaabent: Ja
doegnaabent: Ja
Ændrede åbningstider Jul, Nytår, Corona m.m.: https://www.kk.dk/toiletter/","København","sites/default/files/images/3/2011/03/2014-07-29160226.jpgsites/default/files/images/3/2011/03/2014-07-29160359.jpgsites/default/files/images/3/2011/03/2014-07-29160439.jpg"
"637","Gunløgsgade 26","2300","København S","55.664607","12.579507","Unisex","Ved ikke","Ved ikke","Ved ikke","Ved ikke","Ved ikke","Placering: Bemandet legeplads Gunløgsgade
Åbningstider:
helaarsaabent: Ja
doegnaabent: Nej
Ændrede åbningstider Jul, Nytår, Corona m.m.: https://www.kk.dk/toiletter/","København","sites/default/files/images/1/2019/07/gunloegsgade26.jpg"
"687","Gustav Bangs Gade 21","2450","København SV","55.651180","12.536366","Unisex","Ved ikke","Ved ikke","Ved ikke","Ved ikke","Ved ikke","Placering: Anker Jørgensens Plads
Åbningstider:
Mandag: Døgnåbent
Tirsdag: Døgnåbent
Onsdag: Døgnåbent
Torsdag: Døgnåbent
Fredag: Døgnåbent
Lørdag: Døgnåbent
Søndag: Døgnåbent
Står indtil Mozarts Plads genåbner i 2024 (Vedtaget af TMU).
Ændrede åbningstider Jul, Nytår, Corona m.m.: https://www.kk.dk/toiletter/","København","sites/default/files/images/1/2020/05/gustav-bangs-gade21.jpg"
"165","Halmtorvet 9C","1700","København V","55.670053","12.561735","Unisex","Nej","Nej","Ja","Nej","Ja","Placering: Gade, Den brune kødby
Åbningstider:
Helårsåbent: ja
Døgnåbent: Ja
Ændrede åbningstider Jul, Nytår, Corona m.m.: https://www.kk.dk/toiletter/","København","sites/default/files/images/3/2014/01/pe0987-1024x682.jpgsites/default/files/images/3/2014/01/cph-urban-toilet-front-narrow-977x1024.jpgsites/default/files/images/3/2014/01/pe1319-1024x682.jpgsites/default/files/images/3/2014/01/pe1389-1024x682.jpg"
"333","Hammelstrupvej 41","2450","København SV","55.644710","12.519857","Unisex","Ved ikke","Ved ikke","Ved ikke","Ved ikke","Ved ikke","Placering: Bemandet legeplads Valbyparken, Naturlegepladsen
Åbningstider:
mandag: Følger legepladsens åbningstider
tirsdag: Følger legepladsens åbningstider
onsdag: Følger legepladsens åbningstider
torsdag: Følger legepladsens åbningstider
fredag: Følger legepladsens åbningstider
loerdag: Følger legepladsens åbningstider
soendag: Følger legepladsens åbningstider
doegnaabent: Nej
Ændrede åbningstider Jul, Nytår, Corona m.m.: https://www.kk.dk/toiletter/","København","sites/default/files/images/3/2016/05/hammelstrupvej41.jpg"
"200","Hans Tavsens Gade 40","2200","København N","55.689757","12.545727","Unisex","Ved ikke","Ved ikke","Ved ikke","Ved ikke","Ved ikke","Placering: Bemandet legeplads Hans Tavsens Park vest
Åbningstider:
mandag: Følger legepladsens åbningstider
tirsdag: Følger legepladsens åbningstider
onsdag: Følger legepladsens åbningstider
torsdag: Følger legepladsens åbningstider
fredag: Følger legepladsens åbningstider
loerdag: Følger legepladsens åbningstider
soendag: Følger legepladsens åbningstider
doegnaabent: Nej
bemaerkning: Mandag-fredag: kl. 8.45-17 undtagen torsdag, hvor der er åbent til 19.
Ændrede åbningstider Jul, Nytår, Corona m.m.: https://www.kk.dk/toiletter/","København","sites/default/files/images/3/2014/04/hans-tavsens-gade40.jpg"
"274","Hans Tavsens Gade 40","2200","København N","55.688329","12.549780","Unisex","Ved ikke","Ved ikke","Ved ikke","Ved ikke","Ved ikke","Placering: Bemandet legeplads Hans Tavsens Park øst
Åbningstider:
mandag: Følger legepladsens åbningstider
tirsdag: Følger legepladsens åbningstider
onsdag: Følger legepladsens åbningstider
torsdag: Følger legepladsens åbningstider
fredag: Følger legepladsens åbningstider
loerdag: Følger legepladsens åbningstider
soendag: Følger legepladsens åbningstider
doegnaabent: Nej
bemaerkning: sommersæsonen (maj-september) mandag-fredag: kl. 9-18 og lørdag: kl. 10-17. I vintersæsonen (oktober til april) 9-16.30 i hverdagene
Ændrede åbningstider Jul, Nytår, Corona m.m.: https://www.kk.dk/toiletter/","København","sites/default/files/images/3/2016/01/hans-tavsens-gade40oest.jpg"
"348","Hillerødgade 23b","2200","København N","55.695527","12.536173","Unisex","Ved ikke","Ved ikke","Ved ikke","Ved ikke","Ved ikke","Placering: Bemandet legeplads Bispeengen
Åbningstider:
mandag: Følger legepladsens åbningstider
tirsdag: Følger legepladsens åbningstider
onsdag: Følger legepladsens åbningstider
torsdag: Følger legepladsens åbningstider
fredag: Følger legepladsens åbningstider
loerdag: Følger legepladsens åbningstider
soendag: Følger legepladsens åbningstider
doegnaabent: Nej
bemaerkning: Sommersæsonen (maj til september) hverdage 9-18 undtagen torsdag, hvor der er åbent til 20. Lørdage åbent 10-17. I juli er der åbent fra 9.30 til 17 på hverdage og lørdag 10-17. I vintersæsonen 9.30 til 17 undtagen mandag, hvor der er åbent til kl. 20.
Ændrede åbningstider Jul, Nytår, Corona m.m.: https://www.kk.dk/toiletter/","København","sites/default/files/images/3/2016/05/hilleroedgade23b.jpg"
"638","Hulgårds Plads 6","2400","København NV","55.704786","12.521864","Unisex","Ved ikke","Ved ikke","Ved ikke","Ved ikke","Ved ikke","Placering: Bemandet legeplads Hulgårds Plads
Åbningstider:
aabent_april_sept:
mandag: Følger legepladsens åbningstider
tirsdag: Følger legepladsens åbningstider
onsdag: Følger legepladsens åbningstider
torsdag: Følger legepladsens åbningstider
fredag: Følger legepladsens åbningstider
loerdag: Følger legepladsens åbningstider
soendag: Følger legepladsens åbningstider
doegnaabent: Nej
bemaerkning: Sommersæsonen mandag-fredag kl. 9-18 og søndag kl. 10-17. I vintersæsonen (november-februar) mandag-fredag 9-16.30 og mellemsæsonen (marts, april og oktober) mandag til fredag 9-17.
Ændrede åbningstider Jul, Nytår, Corona m.m.: https://www.kk.dk/toiletter/","København","sites/default/files/images/1/2019/07/hulgaards-plads6.jpg"
"132","Islands Brygge 20B","2300","København S","55.665192","12.574250","Unisex","Nej","Nej","Nej","Nej","Ja","Placering: Islands Brygge
Åbningstider:
helaarsaabent: Ja
doegnaabent: Ja
Ændrede åbningstider Jul, Nytår, Corona m.m.: https://www.kk.dk/toiletter/","København","sites/default/files/images/3/2012/11/islands-brygge-20b.jpg"
"213","Jernbanegade 10","1608","København V","55.675858","12.564604","Unisex","Nej","Nej","Nej","Nej","Nej","Placering: Axeltorv ved Cirkusbygningen
Åbningstider:
helaarsaabent: Ja
doegnaabent: Ja
Ændrede åbningstider Jul, Nytår, Corona m.m.: https://www.kk.dk/toiletter/","København","sites/default/files/images/1/2015/07/2014-07-29152754.jpgsites/default/files/images/1/2015/07/2014-07-29153001.jpgsites/default/files/images/1/2015/07/2014-07-29153100.jpg"
"202","Kagsvang 31","2700","Brønshøj","55.710409","12.458448","Unisex","Ved ikke","Ved ikke","Ved ikke","Ved ikke","Ved ikke","Placering: Park, Kagsmosen
Åbningstider:
Åbent fra 1. april til 30. september
Ca. 9.00 til 21:00
Ændrede åbningstider Jul, Nytår, Corona m.m.: https://www.kk.dk/toiletter/","København","sites/default/files/images/3/2014/04/kagsvang31.jpg"
"207","Kobbelvænget 15B","2700","Brønshøj","55.716927","12.479076","Unisex","Ved ikke","Ved ikke","Ved ikke","Ved ikke","Ved ikke","Placering: Park, Bystævnet v. Vestvolden
Åbningstider:
Åbent fra 1. april til 30. september
Ca. 9.00 til 21:00
Ændrede åbningstider Jul, Nytår, Corona m.m.: https://www.kk.dk/toiletter/","København","sites/default/files/images/3/2014/04/kobbelvaenget15b.jpg"
"330","Langeliniekaj 63","2100","København Ø","55.703656","12.600802","Unisex","Ved ikke","Ved ikke","Ved ikke","Ved ikke","Ved ikke","Placering: Gade, Langeliniekaj, yderst på kajen
Åbningstider:
Åbent fra 1. april til 30. september
Ca. 9.00 til 21:00
Ændrede åbningstider Jul, Nytår, Corona m.m.: https://www.kk.dk/toiletter/","København","sites/default/files/images/3/2016/05/langeliniekaj63.jpg"
"352","Lergravsvej 16","2300","København S","55.662526","12.618609","Unisex","Ved ikke","Ved ikke","Ved ikke","Ved ikke","Ved ikke","Placering: Bemandet legeplads Lergravsparken
Åbningstider:
mandag: Følger legepladsens åbningstider
tirsdag: Følger legepladsens åbningstider
onsdag: Følger legepladsens åbningstider
torsdag: Følger legepladsens åbningstider
fredag: Følger legepladsens åbningstider
loerdag: Følger legepladsens åbningstider
soendag: Følger legepladsens åbningstider
doegnaabent: Nej
bemaerkning: Sommersæson (maj til september) mandag-fredag kl. 9.30-18 undtagen om onsdagen, hvor der er åbent til 20 og søndag 10-17. I mellemsæsonen (marts, april og oktober) mandag-fredag 9.30-16. I vintersæsonen (november-februar) mandag - fredag 9.30-17.
Ændrede åbningstider Jul, Nytår, Corona m.m.: https://www.kk.dk/toiletter/","København","sites/default/files/images/3/2016/05/lergravsvej16.jpg"
"203","Moseskellet 47","2400","København NV","55.722051","12.522914","Unisex","Ved ikke","Ved ikke","Ved ikke","Ved ikke","Ved ikke","Placering: Park, Moseskellet
Åbningstider:
Åbent fra 1. april til 30. september
9.00 til 21:00 (19.00 om vinteren)
Ændrede åbningstider Jul, Nytår, Corona m.m.: https://www.kk.dk/toiletter/","København","sites/default/files/images/3/2014/04/moseskellet47.jpg"
"204","Mosesvinget 1","2400","København NV","55.712979","12.504840","Unisex","Ved ikke","Ved ikke","Ved ikke","Ved ikke","Ved ikke","Placering: Park, Mosesvinget
Åbningstider:
Åbent fra 1. april til 30. september
Ca. 9.00 til 21:00
Ændrede åbningstider Jul, Nytår, Corona m.m.: https://www.kk.dk/toiletter/","København","sites/default/files/images/3/2014/04/mosesvinget1.jpg"
"355","Nordrupvej 16","2700","Brønshøj","55.704234","12.470960","Unisex","Ved ikke","Ved ikke","Ved ikke","Ved ikke","Ved ikke","Placering: Bemandet legeplads Husumparken
Åbningstider:
mandag: Følger legepladsens åbningstider
tirsdag: Følger legepladsens åbningstider
onsdag: Følger legepladsens åbningstider
torsdag: Følger legepladsens åbningstider
fredag: Følger legepladsens åbningstider
loerdag: Følger legepladsens åbningstider
soendag: Følger legepladsens åbningstider
doegnaabent: Nej
bemaerkning: sommersæsonen (maj-september) hverdage kl. 9.30-18.00 og søndag kl. 10-15 (undtagen juli). I vintersæsonen (november -februar) åbent 9.30-16 i hverdage. I mellemsæsonen(marts, april og oktober) åbent hverdage kl. 9.30-17.
Ændrede åbningstider Jul, Nytår, Corona m.m.: https://www.kk.dk/toiletter/","København","sites/default/files/images/3/2016/05/nordrupvej16.jpg"
"172","Nørre Farimagsgade 6","1364","København K","55.682474","12.566183","Unisex","Ved ikke","Ved ikke","Ved ikke","Ved ikke","Ved ikke","Placering: Park, Ørstedsparken, ved caféen
Åbningstider:
Åbent fra 1. april til 30. september
10:00 - Cafeen lukker
Toilettet følger caféens åbningstider. Cafeen lukker alt afhængig af vejret
Ændrede åbningstider Jul, Nytår, Corona m.m.: https://www.kk.dk/toiletter/","København","sites/default/files/images/3/2014/04/noerre-farimagsgade6.jpg"
"175","Olfert fischers gade 40","1311","København K","55.687614","12.585553","Unisex","Ved ikke","Ved ikke","Ved ikke","Ved ikke","Ved ikke","Placering: Gade, Nyboder, Gammel Vagt
Åbningstider:
Ca. 9.00 til 21:00 (19.00 om vinteren)
Ændrede åbningstider Jul, Nytår, Corona m.m.: https://www.kk.dk/toiletter/","København","sites/default/files/images/3/2014/04/olfert-fischers-gade40.jpg"
"353","Peder Lykkes Vej 73","2300","København S","55.652669","12.597272","Unisex","Ved ikke","Ved ikke","Ved ikke","Ved ikke","Ved ikke","Placering: Bemandet legeplads Remiseparken, Byggelegepladsen
Åbningstider:
mandag: Følger legepladsens åbningstider
tirsdag: Følger legepladsens åbningstider
onsdag: Følger legepladsens åbningstider
torsdag: Følger legepladsens åbningstider
fredag: Følger legepladsens åbningstider
loerdag: Følger legepladsens åbningstider
soendag: Følger legepladsens åbningstider
doegnaabent: Nej
bemaerkning: Sommersæson maj-okt (uge 18-42) mandag-onsdag og fredag kl. 9.30-18.00, torsdag kl. 9.30-20.00, lørdag kl. 10.00-16.00. Mellemsæson (uge 10-17 + uge 43-45) mandag-fredag kl. 9.30-17.00. Vintersæson nov-feb (uge 46-9) mandag-fredag kl. 10.00-16.30
Ændrede åbningstider Jul, Nytår, Corona m.m.: https://www.kk.dk/toiletter/","København","sites/default/files/images/3/2016/05/peder-lykkes-vej73.jpg"
"208","Rødkildevej 15","2400","København NV","55.699655","12.511380","Unisex","Ved ikke","Ved ikke","Ved ikke","Ved ikke","Ved ikke","Placering: Park, Rødkildeparken
Åbningstider:
Åbent fra 1. april til 30. september
Ca. 9.00 til 21:00
Ændrede åbningstider Jul, Nytår, Corona m.m.: https://www.kk.dk/toiletter/","København","sites/default/files/images/3/2014/04/roedkildevej15.jpg"
"323","Serridslevvej 15","2100","København Ø","55.705954","12.572823","Unisex","Nej","Ved ikke","Ved ikke","Ved ikke","Ved ikke","Placering: Park, Fælledparken, Seridsslevvej syd
Åbningstider:
Åbent fra 1. april til 30. september
Ca. 9.00 til 21:00
Ændrede åbningstider Jul, Nytår, Corona m.m.: https://www.kk.dk/toiletter/","København","sites/default/files/images/3/2016/05/serridslevvej15.jpg"
"358","Stefansgade 30","2200","København N","55.694184","12.541991","Unisex","Ved ikke","Ved ikke","Ved ikke","Ved ikke","Ved ikke","Placering: Bemandet legeplads Nørrebroparken
Åbningstider:
mandag: Følger legepladsens åbningstider
tirsdag: Følger legepladsens åbningstider
onsdag: Følger legepladsens åbningstider
torsdag: Følger legepladsens åbningstider
fredag: Følger legepladsens åbningstider
loerdag: Følger legepladsens åbningstider
soendag: Følger legepladsens åbningstider
doegnaabent: Nej
bemaerkning: Sommersæsonen (maj-september) hverdage 9-18 og lørdag 10-17. i skolernes sommerferie er der også åbent søndag kl 10-17. I vintersæsonen (oktober-april) åbent hverdage 9-16.30.
Ændrede åbningstider Jul, Nytår, Corona m.m.: https://www.kk.dk/toiletter/","København","sites/default/files/images/3/2016/05/stefansgade30.jpg"
"214","Stengade 48","2200","København N","55.687270","12.554982","Unisex","Nej","Nej","Ja","Nej","Ja","Placering: Gade, Folkets park
Åbningstider:
Helårsåbent: ja
Døgnåbent: Ja
Ændrede åbningstider Jul, Nytår, Corona m.m.: https://www.kk.dk/toiletter/","København","sites/default/files/images/1/2015/07/img0646.jpgsites/default/files/images/1/2015/07/img0647.jpgsites/default/files/images/3/2015/07/pe1319-1024x682.jpgsites/default/files/images/3/2015/07/pe1389-1024x682.jpg"
"176","Stockholmsgade 26","2100","København Ø","55.690613","12.579121","Unisex","Ved ikke","Ved ikke","Ved ikke","Ved ikke","Ved ikke","Placering: Park, Østre Anlæg, nær legeplads
Åbningstider:
Åbent fra 1. april til 30. september
9.00 til 21:00 (19.00 om vinteren)
Ændrede åbningstider Jul, Nytår, Corona m.m.: https://www.kk.dk/toiletter/","København","sites/default/files/images/3/2014/04/stockholmsgade26.jpg"
"39","Vesterbrogade 47","1620","København V","55.672196","12.555008","Unisex","Nej","Ja","Ja","Ja","Ja","Placering: Gade, Underjordisk Vesterbro Torv
Åbningstider:
9.00-16.00 mandag-fredag, lukket i weekenden (kun åbent ved større arrangementer)
Ændrede åbningstider Jul, Nytår, Corona m.m.: https://www.kk.dk/toiletter/
Underjordisk toilet - Dametoilet til højre og Herretoilet til venstre","København","sites/default/files/images/3/2011/03/07-08-201312-27-43_0.jpgsites/default/files/images/3/2011/03/foto.jpgsites/default/files/images/3/2011/03/foto2.jpgsites/default/files/images/3/2011/03/58033310151710622550774856209872n.jpgsites/default/files/images/3/2011/03/922733101517106224907741306341850n.jpgsites/default/files/images/3/2011/03/vtdamesidenedgang.jpgsites/default/files/images/3/2011/03/foto3.jpg"
"327","Vestre Kirkegårds Allé 15","2450","København SV","55.662010","12.530759","Unisex","Nej","Nej","Ved ikke","Ved ikke","Ved ikke","Placering: Vestre Kirkegård https://www.kk.dk/artikel/vestre-kirkeg%C3%A5rd-mellem-sydhavnen-valby-o...
Åbningstider:
mandag: 7.00 - 22.00 / 7.00 - 19.00
tirsdag: 7.00 - 22.00 / 7.00 - 19.00
onsdag: 7.00 - 22.00 / 7.00 - 19.00
torsdag: 7.00 - 22.00 / 7.00 - 19.00
fredag: 7.00 - 22.00 / 7.00 - 19.00
loerdag: 7.00 - 22.00 / 7.00 - 19.00
soendag: 7.00 - 22.00 / 7.00 - 19.00
doegnaabent: Nej
bemaerkning: Vinterhalvåret (oktober-marts) 07:00-19:00 Sommerhalvåret (april-september) 07:00-22:00
Ændrede åbningstider Jul, Nytår, Corona m.m.: https://www.kk.dk/toiletter/","København","sites/default/files/images/3/2016/05/vestre-kirkegaards-alle15.jpg"
"181","Vigerslevvej 346","2500","Valby","55.646122","12.495449","Unisex","Ved ikke","Nej","Ved ikke","Ved ikke","Ved ikke","Placering: Park, Vigerslevvej
Åbningstider:
Åbent fra 1. april til 30. september
Ca. 9.00 til 21:00
Ændrede åbningstider Jul, Nytår, Corona m.m.: https://www.kk.dk/toiletter/","København","sites/default/files/images/3/2014/04/vingerslevvej346.jpg"
"356","Vognmandsmarken 69","2100","København Ø","55.714445","12.565102","Unisex","Ved ikke","Ved ikke","Ved ikke","Ved ikke","Ved ikke","Placering: Bemandet legeplads Kildevældsparken
Åbningstider:
mandag: Ca. 9.00 - 21.00 (19.00 om vinteren)
tirsdag: Ca. 9.00 - 21.00 (19.00 om vinteren)
onsdag: Ca. 9.00 - 21.00 (19.00 om vinteren)
torsdag: Ca. 9.00 - 21.00 (19.00 om vinteren)
fredag: Ca. 9.00 - 21.00 (19.00 om vinteren)
loerdag: Ca. 9.00 - 21.00 (19.00 om vinteren)
soendag: Ca. 9.00 - 21.00 (19.00 om vinteren)
doegnaabent: Nej
Ændrede åbningstider Jul, Nytår, Corona m.m.: https://www.kk.dk/toiletter/","København","sites/default/files/images/3/2016/05/vognmandsmarken69.jpg"
"360","Wesselsgade 12","2200","København N","55.685969","12.559995","Unisex","Ved ikke","Ved ikke","Ved ikke","Ved ikke","Ved ikke","Placering: Bemandet legeplads Wesselsgade
Åbningstider:
mandag: Følger legepladsens åbningstider
tirsdag: Følger legepladsens åbningstider
onsdag: Følger legepladsens åbningstider
torsdag: Følger legepladsens åbningstider
fredag: Følger legepladsens åbningstider
loerdag: Følger legepladsens åbningstider
soendag: Følger legepladsens åbningstider
doegnaabent: Nej
bemaerkning: Sommersæsonen (maj-september) mandag-fredag kl. 9.30-17.30 og søndag kl. 10-17. I vintersæsonen (oktober - april) åbent på hverdage fra kl. 9.30-17.
Ændrede åbningstider Jul, Nytår, Corona m.m.: https://www.kk.dk/toiletter/","København","sites/default/files/images/3/2016/05/wesselsgade12.jpg"
"133","Ørestads Boulevard 39","2300","København S","55.638528","12.583093","Unisex","Nej","Nej","Nej","Nej","Nej","Placering: Bella Center Station
Åbningstider:
helaarsaabent: Ja
doegnaabent: Ja
Ændrede åbningstider Jul, Nytår, Corona m.m.: https://www.kk.dk/toiletter/","København","sites/default/files/images/3/2013/03/oerestads-boulevart39.jpg"
"37","Ålholm Plads 2","2500","Valby","55.672384","12.489110","Unisex","Nej","Nej","Nej","Nej","Nej","Placering: Ålholm Plads
Åbningstider:
helaarsaabent: Ja
doegnaabent: Ja
Ændrede åbningstider Jul, Nytår, Corona m.m.: https://www.kk.dk/toiletter/","København","sites/default/files/images/3/2011/03/aalholm-plads2.jpg"
